{"epoch":1784799577,"count":18318,"objects":[{"id":"40042","name":"POLYITAN 1","type":"PAYLOAD","l1":"1 40042U 14033AJ  26203.80162057  .00020715  00000-0  62261-3 0  9998","l2":"2 40042  98.0941 233.4633 0007132  41.2035 318.9743 15.34423054659056"},{"id":"40043","name":"TIGRISAT","type":"PAYLOAD","l1":"1 40043U 14033AK  26203.68781413  .00001168  00000-0  13978-3 0  9990","l2":"2 40043  97.7874 352.8969 0048073 319.3573  40.4058 14.85264867650890"},{"id":"40045","name":"AEROCUBE 6A","type":"PAYLOAD","l1":"1 40045U 14033AM  26203.01924188  .00006076  00000-0  50747-3 0  9995","l2":"2 40045  97.7273   9.6095 0036089 257.4142 102.3043 14.98399557651836"},{"id":"40046","name":"AEROCUBE 6B","type":"PAYLOAD","l1":"1 40046U 14033AN  26203.92174432  .00006141  00000-0  49294-3 0  9993","l2":"2 40046  97.7204  10.3625 0038289 242.8320 116.8998 14.99854305652118"},{"id":"40055","name":"CANX-4","type":"PAYLOAD","l1":"1 40055U 14034C   26203.61521628  .00000638  00000-0  89047-4 0  9999","l2":"2 40055  98.3073  80.2214 0011382 256.1364 103.8581 14.81319972649779"},{"id":"40056","name":"CANX-5","type":"PAYLOAD","l1":"1 40056U 14034D   26203.61323535  .00000643  00000-0  89622-4 0  9992","l2":"2 40056  98.3075  80.2650 0011386 256.3978 103.5965 14.81337367640584"},{"id":"40074","name":"UKUBE 1","type":"PAYLOAD","l1":"1 40074U 14037F   26203.00273654  .00008356  00000-0  46405-3 0  9994","l2":"2 40074  98.4254 209.9476 0003135  76.9955 283.1624 15.14023415653825"},{"id":"40119","name":"BRITE-PL 2","type":"PAYLOAD","l1":"1 40119U 14049B   26203.58697205  .00001590  00000-0  15181-3 0  9992","l2":"2 40119  97.9122 315.8672 0013634 358.1835   1.9333 14.94702812646732"},{"id":"40965","name":"AEROCUBE 5C","type":"PAYLOAD","l1":"1 40965U 15058B   26203.84111704  .00003737  00000-0  32796-3 0  9992","l2":"2 40965  64.7664 151.6577 0132900  49.5279 311.7328 14.91615784370979"},{"id":"40966","name":"AEROCUBE 7","type":"PAYLOAD","l1":"1 40966U 15058C   26203.80156487  .00005161  00000-0  40809-3 0  9993","l2":"2 40966  64.7619 133.2427 0122601  47.8463 313.2987 14.95969131371288"},{"id":"40967","name":"FOX-1","type":"PAYLOAD","l1":"1 40967U 15058D   26203.63204535  .00003443  00000-0  30733-3 0  9999","l2":"2 40967  64.7740 168.8173 0133007  42.9921 318.1491 14.91124323118851"},{"id":"40968","name":"BISONSAT","type":"PAYLOAD","l1":"1 40968U 15058E   26203.84215730  .00005991  00000-0  47012-3 0  9990","l2":"2 40968  64.7744 147.2342 0121685  39.2677 321.7184 14.96147433121991"},{"id":"40970","name":"SNAP-3 ALICE","type":"PAYLOAD","l1":"1 40970U 15058G   26203.77585245  .00166576  00000-0  13833-2 0  9996","l2":"2 40970  64.7491 340.0743 0026524 343.8665  16.1638 15.68961864122451"},{"id":"40971","name":"LMRST-SAT","type":"PAYLOAD","l1":"1 40971U 15058H   26203.32813095  .00003103  00000-0  28031-3 0  9998","l2":"2 40971  64.7746 166.1674 0134487  45.0995 316.0939 14.90735235118793"},{"id":"40972","name":"SNAP-3 EDDIE","type":"PAYLOAD","l1":"1 40972U 15058J   26202.78113421  .00183998  00000-0  14492-2 0  9990","l2":"2 40972  64.7407 334.0108 0027522 347.0844  12.9598 15.70146276124447"},{"id":"40973","name":"PROPCUBE 3","type":"PAYLOAD","l1":"1 40973U 15058K   26203.81220676  .00004572  00000-0  37473-3 0  9992","l2":"2 40973  64.7680 141.2116 0126352  46.1017 315.0446 14.94464619120127"},{"id":"40974","name":"SINOD-D 1","type":"PAYLOAD","l1":"1 40974U 15058L   26202.98089666  .00013682  00000-0  63849-3 0  9990","l2":"2 40974  64.7585  61.0694 0082717  32.8987 327.7246 15.17053963120890"},{"id":"40975","name":"SNAP-3 JIMI","type":"PAYLOAD","l1":"1 40975U 15058M   26203.73246991  .00007500  00000-0  50479-3 0  9998","l2":"2 40975  64.7645 107.2754 0108360  41.4025 319.5240 15.02687601119561"},{"id":"40976","name":"PROPCUBE 1","type":"PAYLOAD","l1":"1 40976U 15058N   26203.31539530  .00002804  00000-0  26510-3 0  9998","l2":"2 40976  64.7730 186.3510 0133036  47.3732 313.8504 14.89355925121493"},{"id":"40977","name":"SINOD-D 3","type":"PAYLOAD","l1":"1 40977U 15058P   26203.91653393  .00005191  00000-0  43097-3 0  9990","l2":"2 40977  64.7713 164.2284 0121648  44.1831 316.8919 14.94225073120093"},{"id":"41849","name":"RAVAN","type":"PAYLOAD","l1":"1 41849U 16067B   26203.66100140  .00061598  00000-0  81562-3 0  9991","l2":"2 41849  97.9829  97.4213 0003382 186.1117 174.0097 15.58100639533219"},{"id":"41850","name":"CELTEE 1","type":"PAYLOAD","l1":"1 41850U 16067C   26203.89096674  .00005107  00000-0  24073-3 0  9992","l2":"2 41850  98.0633  72.8932 0002487 100.0072 260.1442 15.19994618531305"},{"id":"41851","name":"OPTICUBE 04","type":"PAYLOAD","l1":"1 41851U 16067D   26203.86937198  .00001913  00000-0  12255-3 0  9995","l2":"2 41851  98.0668  58.0119 0015545   2.5585 357.5719 15.09794660530559"},{"id":"41852","name":"AEROCUBE 8D","type":"PAYLOAD","l1":"1 41852U 16067E   26203.20251589  .00007533  00000-0  30653-3 0  9993","l2":"2 41852  98.0636  76.0403 0004169  38.5037 321.6496 15.24838026531403"},{"id":"41853","name":"AEROCUBE 8C","type":"PAYLOAD","l1":"1 41853U 16067F   26203.87781190  .00007654  00000-0  30896-3 0  9996","l2":"2 41853  98.0510  73.9494 0003717 309.3108  50.7798 15.25100953531505"},{"id":"42846","name":"CORVUS BC2","type":"PAYLOAD","l1":"1 42846U 17042X   26203.40027891  .00002704  00000-0  18692-3 0  9994","l2":"2 42846  97.4098   3.3923 0012704 358.0532   2.0644 15.06484162492360"},{"id":"42847","name":"CORVUS BC1","type":"PAYLOAD","l1":"1 42847U 17042Y   26202.99253482  .00002944  00000-0  20227-3 0  9998","l2":"2 42847  97.4131   3.8368 0010982 335.6933  24.3775 15.06649513492331"},{"id":"43016","name":"MAKERSAT 0","type":"PAYLOAD","l1":"1 43016U 17073D   26203.17461343  .00022676  00000-0  59187-3 0  9990","l2":"2 43016  97.4572  85.9833 0105731 147.5495 213.2308 15.33199943471826"},{"id":"43759","name":"SIRION PATHFINDER-2","type":"PAYLOAD","l1":"1 43759U 18099B   26203.39275934  .00003802  00000-0  20801-3 0  9997","l2":"2 43759  97.4236 251.6156 0009213 167.1431 193.0038 15.14818383417957"},{"id":"43767","name":"CORVUS BC4","type":"PAYLOAD","l1":"1 43767U 18099K   26203.91041675  .00003872  00000-0  22442-3 0  9997","l2":"2 43767  97.4051 245.8467 0006925 228.3285 131.7354 15.12745018417801"}]}